{
  "norad_id": 48357,
  "name": "STARLINK-2636",
  "history": [
    {
      "epoch": "2026-03-28T21:31:56.724384",
      "apogee_km": 476.12676230311627,
      "perigee_km": 474.21605991809975,
      "latitude_deg": -52.99566718408832,
      "longitude_deg": -178.17030623997562,
      "semi_major_axis_km": 6853.308411110608,
      "eccentricity": 0.0001394,
      "inclination_deg": 53.1602,
      "raan_deg": 268.9073,
      "arg_perigee_deg": 89.448,
      "mean_anomaly_deg": 270.668,
      "mean_motion_rev_day": 15.30214622
    }
  ]
}