{"fetched_at":"2026-03-30T06:02:59Z","count":15439,"tles":[{"name":"STARLINK-2636","line1":"1 48357U 21038E   26087.89718431  .00009501  00000+0  33235-3 0  9998","line2":"2 48357  53.1602 268.9073 0001394  89.4480 270.6680 15.30214622270027","category":"Starlink"}]}